# Coloque aqui TLEs GHGSat (texto). Exemplo de bloco:
# GHGSAT-C10
# 1 51027U 22002R   24271.46527473  .00010847  00000-0  65848-3 0  9995
# 2 51027  97.3403  24.8776 0009817 103.0578 257.1827 15.09956277142984
